ONEWEB-0415             
1 51624U 22012C   24192.93189231  .00000309  00000+0  84789-3 0  9999
2 51624  87.8945 176.7252 0001682  85.8086 274.3234 13.10376348116798
ONEWEB-0416             
1 51625U 22012D   24192.94350984  .00000612  00000+0  17162-2 0  9993
2 51625  87.8950 176.7190 0002058  86.5187 273.6175 13.10376480116832
ONEWEB-0422             
1 51626U 22012E   24192.94455422  .00000038  00000+0  63431-4 0  9991
2 51626  87.9185 146.4627 0002571  66.8637 293.2766 13.17649984120809
ONEWEB-0423             
1 51627U 22012F   24192.93809369  .00000095  00000+0  21092-3 0  9993
2 51627  87.9184 146.4652 0002228  82.1034 278.0350 13.17651198120695
ONEWEB-0425             
1 51628U 22012G   24192.95348412  .00000545  00000+0  15263-2 0  9995
2 51628  87.8943 176.7000 0002355  93.3230 266.8167 13.10371530116838
ONEWEB-0428             
1 51629U 22012H   24192.93355578  .00000410  00000+0  11377-2 0  9998
2 51629  87.8950 176.7195 0001952  77.2022 282.9324 13.10376329116794
ONEWEB-0431             
1 51630U 22012J   24192.90352187 -.00000597  00000+0 -17458-2 0  9994
2 51630  87.8938 176.7212 0001584  67.6341 292.4954 13.10372115116840
ONEWEB-0434             
1 51631U 22012K   24192.95679987  .00000410  00000+0  11383-2 0  9993
2 51631  87.8944 176.7269 0002179  82.7441 277.3934 13.10370412116837
